STARLINK-35593          
1 66107U 25236X   25311.60598546  .00244384  00000+0  16182-2 0  9997
2 66107  53.1576 314.4687 0001120 103.0878 257.0267 15.74285915  4205
STARLINK-35590          
1 66108U 25236Y   25311.73227258  .00323548  00000+0  21140-2 0  9991
2 66108  53.1574 313.8350 0001348  97.4515 262.6658 15.74360838  4169
STARLINK-35545          
1 66109U 25236Z   25311.60564719  .00283293  00000+0  18660-2 0  9999
2 66109  53.1576 314.4666 0001279  80.0582 280.0582 15.74291310  4207
STARLINK-35427          
1 66110U 25236AA  25311.73195116  .00330692  00000+0  21634-2 0  9997
2 66110  53.1575 313.8320 0001749  61.8833 298.2364 15.74310906  4220
STARLINK-35574          
1 66111U 25236AB  25311.47765602  .00265925  00000+0  17579-2 0  9991
2 66111  53.1576 315.0899 0001637 119.9344 240.1838 15.74260295  4121
STARLINK-35531          
1 66112U 25236AC  25311.73092301  .00307937  00000+0  20177-2 0  9998
2 66112  53.1575 313.8247 0001631  93.0978 267.0228 15.74340771  4223
STARLINK-35491          
1 66113U 25236AD  25311.73126240  .00381513  00000+0  24746-2 0  9997
2 66113  53.1575 313.8267 0001901  66.8021 293.3198 15.74361723  4221
STARLINK-35496          
1 66114U 25237A   25311.83336806 -.01835273  00000+0 -15989-1 0  9999
2 66114  53.1594 253.0906 0001285  93.2708  94.8917 15.71660246  3860
STARLINK-35428          
1 66115U 25237B   25311.83336806 -.01838008  00000+0 -16016-1 0  9991
2 66115  53.1593 253.0865 0001258 111.8432  78.2377 15.71661112  3864
STARLINK-35573          
1 66116U 25237C   25311.83336806 -.01829520  00000+0 -15934-1 0  9999
2 66116  53.1592 253.0828 0001246 105.6971  86.3014 15.71655860  3860
STARLINK-35572          
1 66117U 25237D   25311.83336806 -.01830261  00000+0 -15941-1 0  9992
2 66117  53.1592 253.0750 0001101  97.3680  98.4595 15.71658471  3868
STARLINK-35468          
1 66118U 25237E   25311.83336806 -.01830896  00000+0 -15947-1 0  9993
2 66118  53.1594 253.0786 0001253  96.9383  96.9752 15.71657665  3865
