CCSDS_OMM_VERS = 2.0
CREATION_DATE  = 
ORIGINATOR     = 

OBJECT_NAME    = STARLINK-35593
OBJECT_ID      = 2025-236X
CENTER_NAME    = EARTH
REF_FRAME      = TEME
TIME_SYSTEM    = UTC
MEAN_ELEMENT_THEORY = SGP/SGP4

EPOCH          = 2025-11-07T14:32:37.143744
MEAN_MOTION    = 15.74285915
ECCENTRICITY   = .000112
INCLINATION    = 53.1576
RA_OF_ASC_NODE = 314.4687
ARG_OF_PERICENTER = 103.0878
MEAN_ANOMALY   = 257.0267

EPHEMERIS_TYPE = 0
CLASSIFICATION_TYPE = U
NORAD_CAT_ID   = 66107
ELEMENT_SET_NO = 999
REV_AT_EPOCH   = 420
BSTAR          = .16182E-2
MEAN_MOTION_DOT = .244384E-2
MEAN_MOTION_DDOT = 0

CCSDS_OMM_VERS = 2.0
CREATION_DATE  = 
ORIGINATOR     = 

OBJECT_NAME    = STARLINK-35590
OBJECT_ID      = 2025-236Y
CENTER_NAME    = EARTH
REF_FRAME      = TEME
TIME_SYSTEM    = UTC
MEAN_ELEMENT_THEORY = SGP/SGP4

EPOCH          = 2025-11-07T17:34:28.350912
MEAN_MOTION    = 15.74360838
ECCENTRICITY   = .0001348
INCLINATION    = 53.1574
RA_OF_ASC_NODE = 313.8350
ARG_OF_PERICENTER = 97.4515
MEAN_ANOMALY   = 262.6658

EPHEMERIS_TYPE = 0
CLASSIFICATION_TYPE = U
NORAD_CAT_ID   = 66108
ELEMENT_SET_NO = 999
REV_AT_EPOCH   = 416
BSTAR          = .2114E-2
MEAN_MOTION_DOT = .323548E-2
MEAN_MOTION_DDOT = 0

CCSDS_OMM_VERS = 2.0
CREATION_DATE  = 
ORIGINATOR     = 

OBJECT_NAME    = STARLINK-35545
OBJECT_ID      = 2025-236Z
CENTER_NAME    = EARTH
REF_FRAME      = TEME
TIME_SYSTEM    = UTC
MEAN_ELEMENT_THEORY = SGP/SGP4

EPOCH          = 2025-11-07T14:32:07.917216
MEAN_MOTION    = 15.74291310
ECCENTRICITY   = .0001279
INCLINATION    = 53.1576
RA_OF_ASC_NODE = 314.4666
ARG_OF_PERICENTER = 80.0582
MEAN_ANOMALY   = 280.0582

EPHEMERIS_TYPE = 0
CLASSIFICATION_TYPE = U
NORAD_CAT_ID   = 66109
ELEMENT_SET_NO = 999
REV_AT_EPOCH   = 420
BSTAR          = .1866E-2
MEAN_MOTION_DOT = .283293E-2
MEAN_MOTION_DDOT = 0

CCSDS_OMM_VERS = 2.0
CREATION_DATE  = 
ORIGINATOR     = 

OBJECT_NAME    = STARLINK-35427
OBJECT_ID      = 2025-236AA
CENTER_NAME    = EARTH
REF_FRAME      = TEME
TIME_SYSTEM    = UTC
MEAN_ELEMENT_THEORY = SGP/SGP4

EPOCH          = 2025-11-07T17:34:00.580224
MEAN_MOTION    = 15.74310906
ECCENTRICITY   = .0001749
INCLINATION    = 53.1575
RA_OF_ASC_NODE = 313.8320
ARG_OF_PERICENTER = 61.8833
MEAN_ANOMALY   = 298.2364

EPHEMERIS_TYPE = 0
CLASSIFICATION_TYPE = U
NORAD_CAT_ID   = 66110
ELEMENT_SET_NO = 999
REV_AT_EPOCH   = 422
BSTAR          = .21634E-2
MEAN_MOTION_DOT = .330692E-2
MEAN_MOTION_DDOT = 0

CCSDS_OMM_VERS = 2.0
CREATION_DATE  = 
ORIGINATOR     = 

OBJECT_NAME    = STARLINK-35574
OBJECT_ID      = 2025-236AB
CENTER_NAME    = EARTH
REF_FRAME      = TEME
TIME_SYSTEM    = UTC
MEAN_ELEMENT_THEORY = SGP/SGP4

EPOCH          = 2025-11-07T11:27:49.480128
MEAN_MOTION    = 15.74260295
ECCENTRICITY   = .0001637
INCLINATION    = 53.1576
RA_OF_ASC_NODE = 315.0899
ARG_OF_PERICENTER = 119.9344
MEAN_ANOMALY   = 240.1838

EPHEMERIS_TYPE = 0
CLASSIFICATION_TYPE = U
NORAD_CAT_ID   = 66111
ELEMENT_SET_NO = 999
REV_AT_EPOCH   = 412
BSTAR          = .17579E-2
MEAN_MOTION_DOT = .265925E-2
MEAN_MOTION_DDOT = 0

CCSDS_OMM_VERS = 2.0
CREATION_DATE  = 
ORIGINATOR     = 

OBJECT_NAME    = STARLINK-35531
OBJECT_ID      = 2025-236AC
CENTER_NAME    = EARTH
REF_FRAME      = TEME
TIME_SYSTEM    = UTC
MEAN_ELEMENT_THEORY = SGP/SGP4

EPOCH          = 2025-11-07T17:32:31.748064
MEAN_MOTION    = 15.74340771
ECCENTRICITY   = .0001631
INCLINATION    = 53.1575
RA_OF_ASC_NODE = 313.8247
ARG_OF_PERICENTER = 93.0978
MEAN_ANOMALY   = 267.0228

EPHEMERIS_TYPE = 0
CLASSIFICATION_TYPE = U
NORAD_CAT_ID   = 66112
ELEMENT_SET_NO = 999
REV_AT_EPOCH   = 422
BSTAR          = .20177E-2
MEAN_MOTION_DOT = .307937E-2
MEAN_MOTION_DDOT = 0

CCSDS_OMM_VERS = 2.0
CREATION_DATE  = 
ORIGINATOR     = 

OBJECT_NAME    = STARLINK-35491
OBJECT_ID      = 2025-236AD
CENTER_NAME    = EARTH
REF_FRAME      = TEME
TIME_SYSTEM    = UTC
MEAN_ELEMENT_THEORY = SGP/SGP4

EPOCH          = 2025-11-07T17:33:01.071360
MEAN_MOTION    = 15.74361723
ECCENTRICITY   = .0001901
INCLINATION    = 53.1575
RA_OF_ASC_NODE = 313.8267
ARG_OF_PERICENTER = 66.8021
MEAN_ANOMALY   = 293.3198

EPHEMERIS_TYPE = 0
CLASSIFICATION_TYPE = U
NORAD_CAT_ID   = 66113
ELEMENT_SET_NO = 999
REV_AT_EPOCH   = 422
BSTAR          = .24746E-2
MEAN_MOTION_DOT = .381513E-2
MEAN_MOTION_DDOT = 0

CCSDS_OMM_VERS = 2.0
CREATION_DATE  = 
ORIGINATOR     = 

OBJECT_NAME    = STARLINK-35496
OBJECT_ID      = 2025-237A
CENTER_NAME    = EARTH
REF_FRAME      = TEME
TIME_SYSTEM    = UTC
MEAN_ELEMENT_THEORY = SGP/SGP4

EPOCH          = 2025-11-07T20:00:03.000384
MEAN_MOTION    = 15.71660246
ECCENTRICITY   = .0001285
INCLINATION    = 53.1594
RA_OF_ASC_NODE = 253.0906
ARG_OF_PERICENTER = 93.2708
MEAN_ANOMALY   = 94.8917

EPHEMERIS_TYPE = 0
CLASSIFICATION_TYPE = U
NORAD_CAT_ID   = 66114
ELEMENT_SET_NO = 999
REV_AT_EPOCH   = 386
BSTAR          = -.15989E-1
MEAN_MOTION_DOT = -.1835273E-1
MEAN_MOTION_DDOT = 0

CCSDS_OMM_VERS = 2.0
CREATION_DATE  = 
ORIGINATOR     = 

OBJECT_NAME    = STARLINK-35428
OBJECT_ID      = 2025-237B
CENTER_NAME    = EARTH
REF_FRAME      = TEME
TIME_SYSTEM    = UTC
MEAN_ELEMENT_THEORY = SGP/SGP4

EPOCH          = 2025-11-07T20:00:03.000384
MEAN_MOTION    = 15.71661112
ECCENTRICITY   = .0001258
INCLINATION    = 53.1593
RA_OF_ASC_NODE = 253.0865
ARG_OF_PERICENTER = 111.8432
MEAN_ANOMALY   = 78.2377

EPHEMERIS_TYPE = 0
CLASSIFICATION_TYPE = U
NORAD_CAT_ID   = 66115
ELEMENT_SET_NO = 999
REV_AT_EPOCH   = 386
BSTAR          = -.16016E-1
MEAN_MOTION_DOT = -.1838008E-1
MEAN_MOTION_DDOT = 0

CCSDS_OMM_VERS = 2.0
CREATION_DATE  = 
ORIGINATOR     = 

OBJECT_NAME    = STARLINK-35573
OBJECT_ID      = 2025-237C
CENTER_NAME    = EARTH
REF_FRAME      = TEME
TIME_SYSTEM    = UTC
MEAN_ELEMENT_THEORY = SGP/SGP4

EPOCH          = 2025-11-07T20:00:03.000384
MEAN_MOTION    = 15.71655860
ECCENTRICITY   = .0001246
INCLINATION    = 53.1592
RA_OF_ASC_NODE = 253.0828
ARG_OF_PERICENTER = 105.6971
MEAN_ANOMALY   = 86.3014

EPHEMERIS_TYPE = 0
CLASSIFICATION_TYPE = U
NORAD_CAT_ID   = 66116
ELEMENT_SET_NO = 999
REV_AT_EPOCH   = 386
BSTAR          = -.15934E-1
MEAN_MOTION_DOT = -.182952E-1
MEAN_MOTION_DDOT = 0

CCSDS_OMM_VERS = 2.0
CREATION_DATE  = 
ORIGINATOR     = 

OBJECT_NAME    = STARLINK-35572
OBJECT_ID      = 2025-237D
CENTER_NAME    = EARTH
REF_FRAME      = TEME
TIME_SYSTEM    = UTC
MEAN_ELEMENT_THEORY = SGP/SGP4

EPOCH          = 2025-11-07T20:00:03.000384
MEAN_MOTION    = 15.71658471
ECCENTRICITY   = .0001101
INCLINATION    = 53.1592
RA_OF_ASC_NODE = 253.0750
ARG_OF_PERICENTER = 97.3680
MEAN_ANOMALY   = 98.4595

EPHEMERIS_TYPE = 0
CLASSIFICATION_TYPE = U
NORAD_CAT_ID   = 66117
ELEMENT_SET_NO = 999
REV_AT_EPOCH   = 386
BSTAR          = -.15941E-1
MEAN_MOTION_DOT = -.1830261E-1
MEAN_MOTION_DDOT = 0

CCSDS_OMM_VERS = 2.0
CREATION_DATE  = 
ORIGINATOR     = 

OBJECT_NAME    = STARLINK-35468
OBJECT_ID      = 2025-237E
CENTER_NAME    = EARTH
REF_FRAME      = TEME
TIME_SYSTEM    = UTC
MEAN_ELEMENT_THEORY = SGP/SGP4

EPOCH          = 2025-11-07T20:00:03.000384
MEAN_MOTION    = 15.71657665
ECCENTRICITY   = .0001253
INCLINATION    = 53.1594
RA_OF_ASC_NODE = 253.0786
ARG_OF_PERICENTER = 96.9383
MEAN_ANOMALY   = 96.9752

EPHEMERIS_TYPE = 0
CLASSIFICATION_TYPE = U
NORAD_CAT_ID   = 66118
ELEMENT_SET_NO = 999
REV_AT_EPOCH   = 386
BSTAR          = -.15947E-1
MEAN_MOTION_DOT = -.1830896E-1
MEAN_MOTION_DDOT = 0

